[{"OBJECT_NAME":"STARLINK-2698","OBJECT_ID":"2021-040AG","EPOCH":"2026-03-09T13:45:18.039744","MEAN_MOTION":15.30496165,"ECCENTRICITY":0.0001389,"INCLINATION":53.1606,"RA_OF_ASC_NODE":179.3378,"ARG_OF_PERICENTER":68.9532,"MEAN_ANOMALY":291.1617,"EPHEMERIS_TYPE":0,"CLASSIFICATION_TYPE":"U","NORAD_CAT_ID":48458,"ELEMENT_SET_NO":999,"REV_AT_EPOCH":26737,"BSTAR":-0.0031426,"MEAN_MOTION_DOT":-0.00093133,"MEAN_MOTION_DDOT":0},{"OBJECT_NAME":"HYPERFIELD-1A","OBJECT_ID":"2024-149CY","EPOCH":"2026-03-09T18:21:25.814304","MEAN_MOTION":15.29681349,"ECCENTRICITY":0.00038648,"INCLINATION":97.3842,"RA_OF_ASC_NODE":149.5066,"ARG_OF_PERICENTER":313.7844,"MEAN_ANOMALY":46.3076,"EPHEMERIS_TYPE":0,"CLASSIFICATION_TYPE":"U","NORAD_CAT_ID":60562,"ELEMENT_SET_NO":999,"REV_AT_EPOCH":8683,"BSTAR":0.00030052114,"MEAN_MOTION_DOT":8.569e-5,"MEAN_MOTION_DDOT":0}]
