STARLINK-2698           
1 48458U 21040AG  26068.57312546 -.00093133  00000+0 -31426-2 0  9999
2 48458  53.1606 179.3378 0001389  68.9532 291.1617 15.30496165267376
HYPERFIELD-1A           
1 60562U 24149CY  26068.76488211  .00008569  00000+0  30052-3 0  9998
2 60562  97.3842 149.5066 0003865 313.7844  46.3076 15.29681349 86836
